ESEO                    
1 43792U 18099AL  26068.65529582  .00002831  00000+0  20935-3 0  9991
2 43792  97.4113 110.2601 0011063 317.6000  42.4371 15.03914518396849
STARLINK-5646           
1 55461U 23015N   26068.10268634 -.00004024  00000+0 -28306-3 0  9997
2 55461  43.0039 329.3585 0001039 275.3748  84.6976 15.02524276170660
